NORAD_CAT_ID,OBJECT_NAME,OBJECT_TYPE,EPOCH,MEAN_MOTION,ECCENTRICITY,INCLINATION,RA_OF_ASC_NODE,ARG_OF_PERICENTER,MEAN_ANOMALY,BSTAR,MEAN_MOTION_DOT,MEAN_MOTION_DDOT,TLE_LINE0,TLE_LINE1,TLE_LINE2,SEMIMAJOR_AXIS,PERIOD,APOGEE,PERIGEE,DECAYED
52289.0,STARLINK-3751,PAYLOAD,2024-07-06 15:33:23,15.08835549,0.0001182,53.218,322.1956,78.571,281.5415,-7.8585e-05,-1.538e-05,0.0,0 STARLINK-3751,1 52289U 22041AE  24188.64819039 -.00001538  00000-0 -78585-4 0  9994,2 52289  53.2180 322.1956 0001182  78.5710 281.5415 15.08835549123476,6917.894,95.438,540.577,538.941,0.0
52289.0,STARLINK-3751,PAYLOAD,2024-07-07 13:48:47,15.08838681,0.0001155,53.2176,318.0319,80.9672,279.1451,0.00027574,4.103e-05,0.0,0 STARLINK-3751,1 52289U 22041AE  24189.57555388  .00004103  00000-0  27574-3 0  9991,2 52289  53.2176 318.0319 0001155  80.9672 279.1451 15.08838681122395,6917.884,95.438,540.548,538.95,0.0
52289.0,STARLINK-3751,PAYLOAD,2024-07-07 15:24:10,15.08842777,0.0001189,53.2179,317.7345,80.049,280.0637,0.00035651,5.391e-05,0.0,0 STARLINK-3751,1 52289U 22041AE  24189.64179294  .00005391  00000-0  35651-3 0  9992,2 52289  53.2179 317.7345 0001189  80.0490 280.0637 15.08842777123624,6917.872,95.437,540.559,538.914,0.0
52289.0,STARLINK-3751,PAYLOAD,2024-07-08 13:39:34,15.08835927,0.0001113,53.2179,313.568,99.1844,260.9274,0.00010008,1.305e-05,0.0,0 STARLINK-3751,1 52289U 22041AE  24190.56915406  .00001305  00000-0  10008-3 0  9998,2 52289  53.2179 313.5680 0001113  99.1844 260.9274 15.08835927123769,6917.893,95.438,540.528,538.988,0.0
52289.0,STARLINK-3751,PAYLOAD,2024-07-08 15:14:58,15.08838028,0.0001035,53.217,313.2735,86.5402,273.5709,7.2079e-05,8.59e-06,0.0,0 STARLINK-3751,1 52289U 22041AE  24190.63539818  .00000859  00000-0  72079-4 0  9995,2 52289  53.2170 313.2735 0001035  86.5402 273.5709 15.08838028122555,6917.886,95.438,540.467,539.035,0.0
52289.0,STARLINK-3751,PAYLOAD,2024-07-09 00:47:16,15.08846165,0.0001282,53.218,311.4913,92.6784,267.4355,0.00016768,2.382e-05,0.0,0 STARLINK-3751,1 52289U 22041AE  24191.03282917  .00002382  00000-0  16768-3 0  9990,2 52289  53.2180 311.4913 0001282  92.6784 267.4355 15.08846165123831,6917.862,95.437,540.613,538.84,0.0
52289.0,STARLINK-3751,PAYLOAD,2024-07-09 13:30:22,15.08830227,0.0001516,53.2197,309.1145,104.6267,255.4893,-5.465e-05,-1.157e-05,0.0,0 STARLINK-3751,1 52289U 22041AE  24191.56275884 -.00001157  00000-0 -54650-4 0  9997,2 52289  53.2197 309.1145 0001516 104.6267 255.4893 15.08830227123915,6917.91,95.438,540.824,538.727,0.0
52289.0,STARLINK-3751,PAYLOAD,2024-07-09 15:05:45,15.0883327,0.0001376,53.219,308.8163,102.5371,257.5775,-2.2492e-05,-6.46e-06,0.0,0 STARLINK-3751,1 52289U 22041AE  24191.62899731 -.00000646  00000-0 -22492-4 0  9998,2 52289  53.2190 308.8163 0001376 102.5371 257.5775 15.08833270122700,6917.901,95.438,540.718,538.814,0.0
52289.0,STARLINK-3751,PAYLOAD,2024-07-09 16:41:08,15.08835279,0.0001358,53.2191,308.5185,98.2449,261.8697,7.9976e-06,-1.61e-06,0.0,0 STARLINK-3751,1 52289U 22041AE  24191.69523674 -.00000161  00000-0  79976-5 0  9996,2 52289  53.2191 308.5185 0001358  98.2449 261.8697 15.08835279122712,6917.895,95.438,540.699,538.82,0.0
52289.0,STARLINK-3751,PAYLOAD,2024-07-10 00:38:03,15.08846502,0.0001294,53.2188,307.0317,97.7781,262.3359,0.00014548,2.029e-05,0.0,0 STARLINK-3751,1 52289U 22041AE  24192.02643096  .00002029  00000-0  14548-3 0  9991,2 52289  53.2188 307.0317 0001294  97.7781 262.3359 15.08846502123983,6917.861,95.437,540.621,538.83,0.0
52289.0,STARLINK-3751,PAYLOAD,2024-07-10 16:31:55,15.08833885,0.0001155,53.2172,304.0539,66.4082,293.7032,5.6827e-05,6.17e-06,0.0,0 STARLINK-3751,1 52289U 22041AE  24192.68883903  .00000617  00000-0  56827-4 0  9994,2 52289  53.2172 304.0539 0001155  66.4082 293.7032 15.08833885124080,6917.899,95.438,540.563,538.965,0.0
52289.0,STARLINK-3751,PAYLOAD,2024-07-11 13:11:56,15.08840894,0.0001174,53.2174,300.1919,87.0948,273.0178,0.00013821,1.913e-05,0.0,0 STARLINK-3751,1 52289U 22041AE  24193.54995632  .00001913  00000-0  13821-3 0  9999,2 52289  53.2174 300.1919 0001174  87.0948 273.0178 15.08840894122990,6917.878,95.437,540.555,538.93,0.0
52289.0,STARLINK-3751,PAYLOAD,2024-07-11 14:47:19,15.088426,0.0001131,53.217,299.8939,83.1659,276.9462,0.00014491,2.019e-05,0.0,0 STARLINK-3751,1 52289U 22041AE  24193.61619527  .00002019  00000-0  14491-3 0  9995,2 52289  53.2170 299.8939 0001131  83.1659 276.9462 15.08842600124224,6917.872,95.437,540.52,538.955,0.0
52289.0,STARLINK-3751,PAYLOAD,2024-07-12 13:02:43,15.088343,0.0001138,53.2156,295.7309,88.5372,271.5751,1.7588e-05,-8e-08,0.0,0 STARLINK-3751,1 52289U 22041AE  24194.54356030 -.00000008  00000-0  17588-4 0  9993,2 52289  53.2156 295.7309 0001138  88.5372 271.5751 15.08834300124367,6917.898,95.438,540.55,538.976,0.0
52289.0,STARLINK-3751,PAYLOAD,2024-07-12 14:38:06,15.08838862,0.0001251,53.2162,295.4331,90.1859,269.9277,7.8424e-05,9.6e-06,0.0,0 STARLINK-3751,1 52289U 22041AE  24194.60979861  .00000960  00000-0  78424-4 0  9995,2 52289  53.2162 295.4331 0001251  90.1859 269.9277 15.08838862123158,6917.884,95.438,540.614,538.883,0.0
52289.0,STARLINK-3751,PAYLOAD,2024-07-13 00:10:25,15.08848391,0.0001243,53.2163,293.6489,91.4185,268.695,0.00021696,3.167e-05,0.0,0 STARLINK-3751,1 52289U 22041AE  24195.00723405  .00003167  00000-0  21696-3 0  9991,2 52289  53.2163 293.6489 0001243  91.4185 268.6950 15.08848391124434,6917.855,95.437,540.58,538.86,0.0
52289.0,STARLINK-3751,PAYLOAD,2024-07-13 12:53:30,15.08838855,0.0001261,53.2164,291.2692,93.9138,266.1998,5.6138e-05,6.06e-06,0.0,0 STARLINK-3751,1 52289U 22041AE  24195.53715995  .00000606  00000-0  56138-4 0  9999,2 52289  53.2164 291.2692 0001261  93.9138 266.1998 15.08838855124518,6917.884,95.438,540.621,538.877,0.0
52289.0,STARLINK-3751,PAYLOAD,2024-07-13 16:04:16,15.08842118,0.0001482,53.2193,290.6707,100.9417,259.1742,0.00014025,1.945e-05,0.0,0 STARLINK-3751,1 52289U 22041AE  24195.66963827  .00001945  00000-0  14025-3 0  9997,2 52289  53.2193 290.6707 0001482 100.9417 259.1742 15.08842118123317,6917.874,95.437,540.764,538.714,0.0
52289.0,STARLINK-3751,PAYLOAD,2024-07-14 00:01:12,15.0885111,0.0001494,53.2181,289.1859,102.4444,257.6715,0.00020455,2.97e-05,0.0,0 STARLINK-3751,1 52289U 22041AE  24196.00083362  .00002970  00000-0  20455-3 0  9996,2 52289  53.2181 289.1859 0001494 102.4444 257.6715 15.08851110124580,6917.846,95.437,540.745,538.678,0.0
52289.0,STARLINK-3751,PAYLOAD,2024-07-14 12:44:17,15.08843093,0.0001565,53.2183,286.8081,103.5119,256.6047,0.0001151,1.544e-05,0.0,0 STARLINK-3751,1 52289U 22041AE  24196.53075770  .00001544  00000-0  11510-3 0  9996,2 52289  53.2183 286.8081 0001565 103.5119 256.6047 15.08843093124660,6917.871,95.437,540.819,538.653,0.0
52289.0,STARLINK-3751,PAYLOAD,2024-07-15 12:35:04,15.08840866,0.0001325,53.2169,282.3486,87.5128,272.6016,1.8624e-05,9e-08,0.0,0 STARLINK-3751,1 52289U 22041AE  24197.52435834  .00000009  00000-0  18624-4 0  9996,2 52289  53.2169 282.3486 0001325  87.5128 272.6016 15.08840866123599,6917.878,95.437,540.659,538.826,0.0
52289.0,STARLINK-3751,PAYLOAD,2024-07-15 22:07:22,15.08851301,0.0001422,53.2175,280.565,89.3926,270.7229,0.00015597,2.196e-05,0.0,0 STARLINK-3751,1 52289U 22041AE  24197.92179116  .00002196  00000-0  15597-3 0  9992,2 52289  53.2175 280.5650 0001422  89.3926 270.7229 15.08851301123651,6917.846,95.437,540.695,538.727,0.0
52289.0,STARLINK-3751,PAYLOAD,2024-07-16 12:25:51,15.08834933,0.000156,53.2174,277.8888,101.3247,258.792,-5.2455e-05,-1.123e-05,0.0,0 STARLINK-3751,1 52289U 22041AE  24198.51796108 -.00001123  00000-0 -52455-4 0  9990,2 52289  53.2174 277.8888 0001560 101.3247 258.7920 15.08834933123742,6917.896,95.438,540.84,538.682,0.0
52289.0,STARLINK-3751,PAYLOAD,2024-07-17 12:16:39,15.08833795,0.0001513,53.2172,273.4299,93.3362,266.7803,7.8044e-05,9.54e-06,0.0,0 STARLINK-3751,1 52289U 22041AE  24199.51156617  .00000954  00000-0  78044-4 0  9997,2 52289  53.2172 273.4299 0001513  93.3362 266.7803 15.08833795123894,6917.899,95.438,540.811,538.718,0.0
52289.0,STARLINK-3751,PAYLOAD,2024-07-18 12:07:26,15.08839821,0.0001407,53.2163,268.9673,81.8426,278.2725,0.00016917,2.405e-05,0.0,0 STARLINK-3751,1 52289U 22041AE  24200.50516835  .00002405  00000-0  16917-3 0  9994,2 52289  53.2163 268.9673 0001407  81.8426 278.2725 15.08839821125264,6917.881,95.438,540.719,538.773,0.0
52289.0,STARLINK-3751,PAYLOAD,2024-07-19 11:58:13,15.08844862,0.0001326,53.2151,264.5073,82.3039,277.8104,0.00026396,3.916e-05,0.0,0 STARLINK-3751,1 52289U 22041AE  24201.49876764  .00003916  00000-0  26396-3 0  9993,2 52289  53.2151 264.5073 0001326  82.3039 277.8104 15.08844862124191,6917.866,95.437,540.648,538.813,0.0
52289.0,STARLINK-3751,PAYLOAD,2024-07-19 21:30:31,15.08853763,0.0001352,53.2154,262.7233,83.4863,276.6283,0.00036212,5.482e-05,0.0,0 STARLINK-3751,1 52289U 22041AE  24201.89620288  .00005482  00000-0  36212-3 0  9993,2 52289  53.2154 262.7233 0001352  83.4863 276.6283 15.08853763124250,6917.838,95.437,540.639,538.768,0.0
52289.0,STARLINK-3751,PAYLOAD,2024-07-20 03:52:04,15.08847506,0.0002059,53.2148,261.5329,86.3446,273.7782,0.00016962,2.413e-05,0.0,0 STARLINK-3751,1 52289U 22041AE  24202.16116663  .00002413  00000-0  16962-3 0  9992,2 52289  53.2148 261.5329 0002059  86.3446 273.7782 15.08847506125510,6917.857,95.437,541.147,538.298,0.0
52289.0,STARLINK-3751,PAYLOAD,2024-07-20 10:13:37,15.08841964,0.0001286,53.2149,260.3436,90.656,269.4579,5.6407e-05,6.1e-06,0.0,0 STARLINK-3751,1 52289U 22041AE  24202.42612704  .00000610  00000-0  56407-4 0  9994,2 52289  53.2149 260.3436 0001286  90.6560 269.4579 15.08841964125555,6917.874,95.437,540.629,538.85,0.0
52289.0,STARLINK-3751,PAYLOAD,2024-07-20 21:21:18,15.08850109,0.0001351,53.2146,258.2609,94.1984,265.9162,0.00020053,2.906e-05,0.0,0 STARLINK-3751,1 52289U 22041AE  24202.88980261  .00002906  00000-0  20053-3 0  9997,2 52289  53.2146 258.2609 0001351  94.1984 265.9162 15.08850109124405,6917.849,95.437,540.649,538.78,0.0
